0 ANIK F2
1 28378U 04027A   19314.87242987 -.00000039 +00000-0 +00000-0 0  9999
2 28378 000.0130 316.3740 0000272 250.1065 046.2786 01.00270357017127
0 ANIK F2
1 28378U 04027A   19315.81485297 -.00000037  00000-0  00000+0 0  9994
2 28378   0.0145 319.0195 0000198 291.4477 342.4947  1.00271354 56197
0 ARIANE 5 R/B
1 28379U 04027B   19315.83787568 -.00000162  00000-0  55134-3 0  9994
2 28379   7.4285  28.9540 7281063 299.8054 352.2044  2.07933205116402
0 ARIANE 5 R/B
1 28379U 04027B   19314.87591681 -.00000092 +00000-0 +92699-4 0  9996
2 28379 007.4294 029.2559 7281100 299.1950 352.1277 02.07932553116363
0 COSMOS 2407
1 28380U 04028A   19314.68675009 +.00000042 +00000-0 +27348-4 0  9998
2 28380 082.9619 059.5088 0039698 151.0579 209.2783 13.76070822768543
0 COSMOS 2407
1 28380U 04028A   19315.05031027  .00000033  00000-0  18028-4 0  9991
2 28380  82.9618  59.2395 0039722 150.0650 210.2786 13.76070740768596
0 SL-8 R/B
1 28381U 04028B   19314.77293149 +.00000012 +00000-0 -35332-5 0  9991
2 28381 082.9604 043.4013 0033106 087.6690 030.4125 13.78247635769707
0 SL-8 R/B
1 28381U 04028B   19315.79613859  .00000019  00000-0  37033-5 0  9994
2 28381  82.9611  42.6411 0033147  84.8987  67.1495 13.78247672769844
0 ATLAS CENTAUR R/B
1 28385U 04034B   19315.70909623  .00022740  00000-0  43175-3 0  9990
2 28385  57.3094  81.2651 3205099 314.6588  23.3132  9.04932492 14812
0 ATLAS CENTAUR R/B
1 28385U 04034B   19315.37761373  .00016918  00000-0  32179-3 0  9993
2 28385  57.3091  81.7705 3205208 314.4437  23.4345  9.04915636 14781
0 METEOR 2-7 DEB
1 28388U 81043E   19315.46178617  .00001763  00000-0  71973-3 0  9991
2 28388  81.2657 210.2793 0039653 267.1966  92.4675 14.26575855798103
0 METEOR 2-7 DEB
1 28389U 81043F   19315.44203717  .00001596  00000-0  63438-3 0  9991
2 28389  81.2653 207.9770 0048482 282.0765  77.4986 14.27704496791726
0 METEOR 2-7 DEB
1 28389U 81043F   19314.67113232 +.00001591 +00000-0 +63243-3 0  9996
2 28389 081.2652 208.7475 0048605 284.2913 075.2872 14.27702069784920
0 AMAZONAS
1 28393U 04031A   19314.68242980 -.00000112 +00000-0 +00000-0 0  9995
2 28393 003.6557 079.2954 0010433 030.8008 201.2797 00.98457465055746
0 AMAZONAS
1 28393U 04031A   19315.11259060 -.00000122  00000-0  00000+0 0  9991
2 28393   3.6567  79.2927 0010395  30.7423 353.8130  0.98457588 55802
0 BREEZE-M R/B
1 28394U 04031B   19314.84602489 -.00000008 +00000-0 +00000-0 0  9992
2 28394 008.3686 231.3141 6261900 078.8370 341.4551 02.10289439117315
0 BREEZE-M DEB (TANK)
1 28395U 04031C   19313.86831154 +.00001237 +00000-0 +17303-3 0  9998
2 28395 049.3923 176.2321 5296377 249.4396 047.8102 05.14972543278309
0 BREEZE-M DEB (TANK)
1 28395U 04031C   19315.42127855  .00000924  00000-0  12098-3 0  9996
2 28395  49.3930 175.0396 5296600 250.4614  46.8743  5.14975689278416
0 SJ-6A
1 28413U 04035A   19315.88706283  .00000552  00000-0  56536-4 0  9992
2 28413  97.7789 333.1848 0016238 345.0051  15.0689 14.94413275826358
0 SJ-6A
1 28413U 04035A   19315.48531964  .00000519  00000-0  53431-4 0  9994
2 28413  97.7790 332.7871 0016208 346.3678  13.7110 14.94412591826294
0 SJ-6A
1 28413U 04035A   19315.21749093  .00000486  00000-0  50411-4 0  9997
2 28413  97.7790 332.5215 0016218 347.1253  12.9557 14.94411998826255
0 SJ-6B
1 28414U 04035B   19315.87607506  .00000666  00000-0  67526-4 0  9997
2 28414  97.7787 332.7566 0005489 343.8116  16.2938 14.94210179826294
0 SJ-6B
1 28414U 04035B   19315.54124290  .00000571  00000-0  58610-4 0  9994
2 28414  97.7789 332.4254 0005456 344.6702  15.4360 14.94209466826243
0 SJ-6B
1 28414U 04035B   19314.87157921 +.00000535 +00000-0 +55241-4 0  9993
2 28414 097.7789 331.7624 0005533 346.6438 013.4657 14.94208308826140
0 SJ-6B
1 28414U 04035B   19315.20641085  .00000536  00000-0  55318-4 0  9996
2 28414  97.7789 332.0939 0005515 345.4601  14.6457 14.94208787826199
0 CZ-4B R/B
1 28415U 04035C   19315.22625448 -.00000176  00000-0 -70801-5 0  9991
2 28415  97.6450 353.8185 0052223  21.1445 339.1925 15.06757903830621
0 CZ-4B R/B
1 28415U 04035C   19314.69498295 -.00000151 +00000-0 -54518-5 0  9999
2 28415 097.6452 353.2911 0052268 022.9453 337.4093 15.06758000830548
0 GSAT 3 (EDUSAT)
1 28417U 04036A   19314.30216801 -.00000036 +00000-0 +00000-0 0  9994
2 28417 006.7537 057.2814 0000639 224.4425 145.3491 00.99264118055186
0 GSAT 3 (EDUSAT)
1 28417U 04036A   19315.29135756 -.00000016  00000-0  00000+0 0  9999
2 28417   6.7556  57.2769 0000646 225.9560 137.3335  0.99263992 55187
0 COSMOS 2408
1 28419U 04037A   19315.19460031  .00000015  00000-0  33651-4 0  9999
2 28419  82.4886  35.4772 0016581 148.0156 212.1935 12.45618161688028
0 COSMOS 2408
1 28419U 04037A   19314.71267556 +.00000015 +00000-0 +33651-4 0  9993
2 28419 082.4886 035.7788 0016581 149.0713 211.1349 12.45618156687962
0 COSMOS 2409
1 28420U 04037B   19314.72007992 +.00000014 +00000-0 +25231-4 0  9996
2 28420 082.4895 037.9829 0014294 156.5400 203.6347 12.45276099687802
0 COSMOS 2409
1 28420U 04037B   19315.20213668  .00000018  00000-0  54335-4 0  9990
2 28420  82.4895  37.6810 0014325 155.5639 204.6132 12.45276144687867
0 SL-8 R/B
1 28421U 04037C   19314.92021788 +.00000003 +00000-0 -52655-4 0  9997
2 28421 082.4866 042.4975 0021619 179.6130 299.6367 12.44364041687158
0 SL-8 R/B
1 28421U 04037C   19315.80214369  .00000013  00000-0  19626-4 0  9995
2 28421  82.4866  41.9465 0021648 177.7124 290.3814 12.44364061687438
0 PSLV DEB
1 28430U 01049NW  19314.94390345 +.00000426 +00000-0 +34476-4 0  9996
2 28430 097.6700 300.5378 0036358 027.3304 332.9825 15.04529128893917
0 PSLV DEB
1 28432U 01049NY  19315.37887795  .00000570  00000-0  10221-3 0  9997
2 28432  97.6838   1.8030 0075294 215.6669 143.9493 14.68551929874716
0 SL-16 DEB
1 28436U 01056K   19314.78153101 +.00000064 +00000-0 +20483-3 0  9999
2 28436 099.4847 066.6315 0193107 205.9507 310.4254 13.28691484868526
0 SL-16 DEB
1 28436U 01056K   19315.15105418  .00000065  00000-0  20765-3 0  9993
2 28436  99.4847  66.9708 0193120 205.0599 277.9620 13.28691556868571
0 SL-16 DEB
1 28437U 01056L   19314.71335420 -.00000026 +00000-0 +30124-4 0  9992
2 28437 099.4777 045.0533 0201642 262.7658 255.9639 13.27299147867454
0 SL-16 DEB
1 28437U 01056L   19315.52328802 -.00000020  00000-0  42269-4 0  9995
2 28437  99.4777  45.7946 0201657 260.8103 166.0601 13.27299207867750
0 CZ-4B DEB
1 28438U 02024E   19315.41970245  .00000551  00000-0  22471-3 0  9994
2 28438  98.5162 299.0381 0022449  77.7217 282.6478 14.31117682908875
0 DELTA 1 DEB
1 28443U 62002E   19314.50836095 -.00000062 +00000-0 +27615-4 0  9999
2 28443 048.2718 351.9233 0076975 235.2201 268.8503 14.54782664956120
0 AMC-15
1 28446U 04041A   19314.87365117 -.00000077 +00000-0 +00000-0 0  9994
2 28446 000.0192 044.1294 0002959 192.7638 022.3050 01.00270811055207
0 AMC-15
1 28446U 04041A   19315.19123862 -.00000077  00000-0  00000+0 0  9998
2 28446   0.0206  45.2874 0002981 192.5130 136.0432  1.00270853 55202
0 BREEZE-M R/B
1 28447U 04041B   19314.68234257 -.00000019 +00000-0 +00000-0 0  9990
2 28447 017.1707 122.0565 5164839 008.5616 181.6887 01.86974437102936
0 BREEZE-M R/B
1 28447U 04041B   19315.21817920 -.00000022  00000-0  00000+0 0  9997
2 28447  17.1719 122.0007 5164762   8.6659 182.3612  1.86974417102935
0 FENGYUN 2C
1 28451U 04042A   19313.96553368 -.00000114 +00000-0 +00000-0 0  9999
2 28451 008.6782 045.6361 0007111 305.1763 066.6229 00.98083722017528
0 FENGYUN 2C
1 28451U 04042A   19314.96900014 -.00000136  00000-0  00000+0 0  9997
2 28451   8.6797  45.6312 0007113 305.3097  60.8251  0.98084095 54755
0 RITE TARGET 1
1 28454U 02056F   19315.07750020  .00000101  00000-0  53114-4 0  9996
2 28454  98.4464 267.2796 0010868 130.1371 230.0767 14.32382165858740
0 EXPRESS AM-1
1 28463U 04043A   19314.44334872 +.00000064 +00000-0 +00000-0 0  9997
2 28463 006.9679 055.4963 0011658 200.9231 167.9621 00.99194170054801
0 SL-12 R/B(2)
1 28466U 04043D   19314.44260170 +.00000089 +00000-0 +00000-0 0  9996
2 28466 010.9172 032.7787 0005054 069.3586 331.8709 01.00118323054989
0 SL-12 R/B(2)
1 28466U 04043D   19315.39153453  .00000092  00000-0  00000+0 0  9999
2 28466  10.9182  32.7721 0005061  69.2996 313.9611  1.00118661 54977
0 JB-3 C
1 28470U 04044A   19315.11487890  .00000680  00000-0  54200-4 0  9999
2 28470  97.3600 206.8039 0045088 239.3646 120.3131 15.02776179824622
0 JB-3 C
1 28470U 04044A   19315.31463583  .00000665  00000-0  53084-4 0  9996
2 28470  97.3601 206.9937 0045083 238.6522 121.0288 15.02776431824656
0 JB-3 C
1 28470U 04044A   19315.78073509  .00000648  00000-0  51802-4 0  9999
2 28470  97.3601 207.4367 0045073 236.9945 122.6946 15.02777178824723
0 AMC-16
1 28472U 04048A   19315.81086069 -.00000193  00000-0  00000+0 0  9999
2 28472   0.0664  86.4148 0002936 148.0473  23.1363  1.00272673 54655
0 AMC-16
1 28472U 04048A   19314.87766403 -.00000195 +00000-0 +00000-0 0  9994
2 28472 000.0273 075.2866 0003024 162.5979 042.8035 01.00270366054566
0 ATLAS 5 CENTAUR R/B
1 28473U 04048B   19314.62004200 -.00000305 +00000-0 +00000-0 0  9991
2 28473 018.9803 340.5851 5716176 098.2736 326.6834 02.06076573112146
0 NAVSTAR 56 (USA 180)
1 28474U 04045A   19314.87140274 -.00000058 +00000-0 +00000-0 0  9993
2 28474 054.8222 061.8024 0196143 262.5884 093.6032 02.00575560110083
0 NAVSTAR 56 (USA 180)
1 28474U 04045A   19315.37832719 -.00000055  00000-0  00000+0 0  9997
2 28474  54.8226  61.7818 0196171 262.5981  99.6405  2.00575512110094
0 BREEZE-M DEB (TANK)
1 28477U 04041C   19315.76143174 -.00000117  00000-0  00000+0 0  9998
2 28477  47.7919 266.6194 6730257 359.4502 359.9146  2.23818999123148
